STARLINK-32878          
1 62892U 25024P   26188.47246873 -.00466857  00000+0 -18320-1 0  9998
2 62892  43.0055   9.0165 0002202 128.0774 232.0276 15.27091600 80586
STARLINK-32892          
1 62893U 25024Q   26188.47630498  .00023644  00000+0  86514-3 0  9992
2 62893  43.0018   9.0487 0003575 130.5029 229.6135 15.27608344 80583
STARLINK-32909          
1 62894U 25024R   26188.48272776  .00015638  00000+0  57615-3 0  9999
2 62894  43.0032   9.1008 0001894 250.3822 109.6826 15.27605068 80588
STARLINK-32901          
1 62895U 25024S   26188.71600470  .00021719  00000+0  79549-3 0  9999
2 62895  43.0001   7.4104 0002207 274.9545  85.1054 15.27618034 80629
STARLINK-32890          
1 62896U 25024T   26188.62106316  .00017282  00000+0  63605-3 0  9996
2 62896  43.0033   7.5593 0001183 286.0757  73.9965 15.27581673 80612
STARLINK-32893          
1 62897U 25024U   26188.76337339 -.00015967  00000+0 -57187-3 0  9991
2 62897  43.0035   6.9038 0000403 131.4686 228.6201 15.27587141 80630
STARLINK-32902          
1 62898U 25024V   26188.75952325  .00016874  00000+0  62155-3 0  9996
2 62898  43.0058   6.8728 0002201 280.2345  79.8258 15.27566644 80637
STARLINK-32661          
1 62899U 25024W   26187.93521160  .00011800  00000+0  43756-3 0  9995
2 62899  43.0010  11.8725 0001566 246.9398 113.1288 15.27584802 80506
STARLINK-11552 [DTC]    
1 62907U 25027A   26188.49795871  .00137045  00000+0  10522-2 0  9996
2 62907  42.9992 345.6098 0002231 261.3122  98.7492 15.70879519 82035
STARLINK-11561 [DTC]    
1 62908U 25027B   26188.83337963  .00060937  00000+0  47572-3 0  9990
2 62908  43.0000 343.2175 0001577 274.1298 335.3409 15.70799002  6027
STARLINK-11567 [DTC]    
1 62909U 25027C   26188.83337963  .00005056  00000+0  42909-4 0  9992
2 62909  42.9999 343.8154 0001576 272.5963  96.3809 15.70820371  5926
STARLINK-11569 [DTC]    
1 62910U 25027D   26188.48203187  .00162610  00000+0  12313-2 0  9999
2 62910  42.9989 345.4789 0002887 233.2419 126.8184 15.71122967 81998
STARLINK-11537 [DTC]    
1 62911U 25027E   26188.49265227  .00128577  00000+0  98993-3 0  9997
2 62911  42.9997 345.5644 0002728 277.3751  82.6806 15.70841930 82034
STARLINK-11565 [DTC]    
1 62912U 25027F   26188.46079578  .00228339  00000+0  17268-2 0  9999
2 62912  42.9993 345.3096 0001844 261.7132  98.3526 15.70947117 81999
STARLINK-11564 [DTC]    
1 62913U 25027G   26188.83337963 -.00050998  00000+0 -39614-3 0  9992
2 62913  43.0002 343.6644 0002038 271.0877 158.0055 15.70852149  6032
STARLINK-11566 [DTC]    
1 62914U 25027H   26188.50858016  .00118499  00000+0  91337-3 0  9993
2 62914  43.0000 345.6938 0003871 285.0405  75.0034 15.70846810 82034
STARLINK-11555 [DTC]    
1 62915U 25027J   26188.50948978  .00129091  00000+0  99267-3 0  9991
2 62915  42.9996 345.6991 0002541 259.4365 100.6217 15.70869750 82035
STARLINK-11430 [DTC]    
1 62916U 25027K   26188.58278324  .00090442  00000+0  69962-3 0  9997
2 62916  42.9996 345.3978 0001595 271.5696  88.4989 15.70875885 82044
STARLINK-11560 [DTC]    
1 62917U 25027L   26188.48734611  .00198610  00000+0  15134-2 0  9990
2 62917  43.0001 345.5205 0004696 287.6206  72.4149 15.70850023 81990
STARLINK-11562 [DTC]    
1 62918U 25027M   26188.47672572  .00143140  00000+0  10892-2 0  9991
2 62918  43.0009 345.4335 0002431 255.1577 104.9021 15.71072621 82035
STARLINK-11457 [DTC]    
1 62919U 25027N   26188.46610766  .00150529  00000+0  11485-2 0  9996
2 62919  42.9997 345.3487 0001721 238.8158 121.2541 15.70984395 81993
STARLINK-32921          
1 62920U 25027P   26188.01864658  .00012381  00000+0  45893-3 0  9994
2 62920  43.0022 174.8390 0001899 279.1354  80.9283 15.27563050 79798
STARLINK-32917          
1 62921U 25027Q   26188.42510463  .00008358  00000+0  31306-3 0  9995
2 62921  43.0010 172.7221 0001587 270.3851  89.6819 15.27561227 79857
STARLINK-32916          
1 62922U 25027R   26188.02250176  .00014576  00000+0  53846-3 0  9996
2 62922  43.0025 174.8611 0001234 261.9093  98.1618 15.27560433 79796
STARLINK-32905          
1 62923U 25027S   26188.30589458  .00010030  00000+0  37370-3 0  9991
2 62923  43.0001 173.5490 0001341 265.2279  94.8420 15.27563878 79839
STARLINK-32871          
1 62924U 25027T   26188.42124879  .00008696  00000+0  32531-3 0  9996
2 62924  43.0019 172.6886 0001590 277.8057  82.2614 15.27564252 79852
STARLINK-32920          
1 62925U 25027U   26188.41739344  .00012733  00000+0  47159-3 0  9994
2 62925  43.0015 172.6615 0001469 257.4239 102.6448 15.27569523 79858
STARLINK-32922          
1 62926U 25027V   26187.45200930  .00017122  00000+0  63075-3 0  9994
2 62926  43.0017 178.3171 0001199 323.5011  36.5758 15.27555617 79706
STARLINK-32891          
1 62927U 25027W   26188.30844480  .00040691  00000+0  14767-2 0  9994
2 62927  42.9970 173.5673 0001281 299.1445  60.9278 15.27655631 79950
STARLINK-32728          
1 62948U 25029A   26188.72770200  .00005815  00000+0  18310-3 0  9991
2 62948  53.1601  31.5257 0001591  16.8969 343.2086 15.34401756 79788
