OBJECT_NAME,OBJECT_ID,EPOCH,MEAN_MOTION,ECCENTRICITY,INCLINATION,RA_OF_ASC_NODE,ARG_OF_PERICENTER,MEAN_ANOMALY,EPHEMERIS_TYPE,CLASSIFICATION_TYPE,NORAD_CAT_ID,ELEMENT_SET_NO,REV_AT_EPOCH,BSTAR,MEAN_MOTION_DOT,MEAN_MOTION_DDOT
STARLINK-32878,2025-024P,2026-07-07T11:20:21.298272,15.27091600,.0002202,43.0055,9.0165,128.0774,232.0276,0,U,62892,999,8058,-.1832E-1,-.466857E-2,0
STARLINK-32892,2025-024Q,2026-07-07T11:25:52.750272,15.27608344,.0003575,43.0018,9.0487,130.5029,229.6135,0,U,62893,999,8058,.86513812E-3,.23644E-3,0
STARLINK-32909,2025-024R,2026-07-07T11:35:07.678464,15.27605068,.00018946,43.0032,9.1008,250.3822,109.6826,0,U,62894,999,8058,.57614758E-3,.15638E-3,0
STARLINK-32901,2025-024S,2026-07-07T17:11:02.806080,15.27618034,.0002207,43.0001,7.4104,274.9545,85.1054,0,U,62895,999,8062,.79549E-3,.21719E-3,0
STARLINK-32890,2025-024T,2026-07-07T14:54:19.857024,15.27581673,.0001183,43.0033,7.5593,286.0757,73.9965,0,U,62896,999,8061,.63605E-3,.17282E-3,0
STARLINK-32893,2025-024U,2026-07-07T18:19:15.460896,15.27587141,.0000403,43.0035,6.9038,131.4686,228.6201,0,U,62897,999,8063,-.57187E-3,-.15967E-3,0
STARLINK-32902,2025-024V,2026-07-07T18:13:42.808800,15.27566644,.0002201,43.0058,6.8728,280.2345,79.8258,0,U,62898,999,8063,.62155E-3,.16874E-3,0
STARLINK-32661,2025-024W,2026-07-06T22:26:42.282240,15.27584802,.0001566,43.0010,11.8725,246.9398,113.1288,0,U,62899,999,8050,.43755629E-3,.118E-3,0
STARLINK-11552 [DTC],2025-027A,2026-07-07T11:57:03.632544,15.70879519,.00022315,42.9992,345.6098,261.3122,98.7492,0,U,62907,999,8203,.10522069E-2,.137045E-2,0
STARLINK-11561 [DTC],2025-027B,2026-07-07T20:00:04.000032,15.70799002,.0001577,43.0000,343.2175,274.1298,335.3409,0,U,62908,999,602,.47572E-3,.60937E-3,0
STARLINK-11567 [DTC],2025-027C,2026-07-07T20:00:04.000032,15.70820371,.0001576,42.9999,343.8154,272.5963,96.3809,0,U,62909,999,592,.42909E-4,.5056E-4,0
STARLINK-11569 [DTC],2025-027D,2026-07-07T11:34:07.553568,15.71122967,.00028872,42.9989,345.4789,233.2419,126.8184,0,U,62910,999,8199,.12312773E-2,.16261E-2,0
STARLINK-11537 [DTC],2025-027E,2026-07-07T11:49:25.156128,15.70841930,.0002728,42.9997,345.5644,277.3751,82.6806,0,U,62911,999,8203,.98992631E-3,.128577E-2,0
STARLINK-11565 [DTC],2025-027F,2026-07-07T11:03:32.755392,15.70947117,.00018446,42.9993,345.3096,261.7132,98.3526,0,U,62912,999,8199,.17267618E-2,.228339E-2,0
STARLINK-11564 [DTC],2025-027G,2026-07-07T20:00:04.000032,15.70852149,.0002038,43.0002,343.6644,271.0877,158.0055,0,U,62913,999,603,-.39614E-3,-.50998E-3,0
STARLINK-11566 [DTC],2025-027H,2026-07-07T12:12:21.325824,15.70846810,.00038715,43.0000,345.6938,285.0405,75.0034,0,U,62914,999,8203,.91336961E-3,.118499E-2,0
STARLINK-11555 [DTC],2025-027J,2026-07-07T12:13:39.916992,15.70869750,.00025414,42.9996,345.6991,259.4365,100.6217,0,U,62915,999,8203,.99266684E-3,.129091E-2,0
STARLINK-11430 [DTC],2025-027K,2026-07-07T13:59:12.471936,15.70875885,.0001595,42.9996,345.3978,271.5696,88.4989,0,U,62916,999,8204,.69962E-3,.90442E-3,0
STARLINK-11560 [DTC],2025-027L,2026-07-07T11:41:46.703904,15.70850023,.00046967,43.0001,345.5205,287.6206,72.4149,0,U,62917,999,8199,.15134194E-2,.19861E-2,0
STARLINK-11562 [DTC],2025-027M,2026-07-07T11:26:29.102208,15.71072621,.00024314,43.0009,345.4335,255.1577,104.9021,0,U,62918,999,8203,.10891586E-2,.14314E-2,0
STARLINK-11457 [DTC],2025-027N,2026-07-07T11:11:11.701824,15.70984395,.00017214,42.9997,345.3487,238.8158,121.2541,0,U,62919,999,8199,.11484888E-2,.150529E-2,0
STARLINK-32921,2025-027P,2026-07-07T00:26:51.064512,15.27563050,.0001899,43.0022,174.8390,279.1354,80.9283,0,U,62920,999,7979,.45892573E-3,.12381E-3,0
STARLINK-32917,2025-027Q,2026-07-07T10:12:09.040032,15.27561227,.00015879,43.0010,172.7221,270.3851,89.6819,0,U,62921,999,7985,.31306104E-3,.8358E-4,0
STARLINK-32916,2025-027R,2026-07-07T00:32:24.152064,15.27560433,.00012342,43.0025,174.8611,261.9093,98.1618,0,U,62922,999,7979,.53846198E-3,.14576E-3,0
STARLINK-32905,2025-027S,2026-07-07T07:20:29.291712,15.27563878,.00013413,43.0001,173.5490,265.2279,94.8420,0,U,62923,999,7983,.37369567E-3,.1003E-3,0
STARLINK-32871,2025-027T,2026-07-07T10:06:35.895456,15.27564252,.00015906,43.0019,172.6886,277.8057,82.2614,0,U,62924,999,7985,.32531197E-3,.8696E-4,0
STARLINK-32920,2025-027U,2026-07-07T10:01:02.793216,15.27569523,.00014693,43.0015,172.6615,257.4239,102.6448,0,U,62925,999,7985,.47159425E-3,.12733E-3,0
STARLINK-32922,2025-027V,2026-07-06T10:50:53.603520,15.27555617,.00011995,43.0017,178.3171,323.5011,36.5758,0,U,62926,999,7970,.63074557E-3,.17122E-3,0
STARLINK-32891,2025-027W,2026-07-07T07:24:09.630720,15.27655631,.00012815,42.9970,173.5673,299.1445,60.9278,0,U,62927,999,7995,.14766607E-2,.40691E-3,0
STARLINK-32728,2025-029A,2026-07-07T17:27:53.452800,15.34401756,.0001591,53.1601,31.5257,16.8969,343.2086,0,U,62948,999,7978,.1831E-3,.5815E-4,0
